NORAD_CAT_ID,OBJECT_NAME,OBJECT_TYPE,EPOCH,MEAN_MOTION,ECCENTRICITY,INCLINATION,RA_OF_ASC_NODE,ARG_OF_PERICENTER,MEAN_ANOMALY,BSTAR,MEAN_MOTION_DOT,MEAN_MOTION_DDOT,TLE_LINE0,TLE_LINE1,TLE_LINE2,SEMIMAJOR_AXIS,PERIOD,APOGEE,PERIGEE,DECAYED
49760.0,STARLINK-3199,PAYLOAD,2024-03-18 13:06:24,15.08873459,0.0001679,53.2166,136.458,80.5351,279.5831,6.4356e-05,7.37e-06,0.0,0 STARLINK-3199,1 49760U 21115AN  24078.54612178  .00000737  00000-0  64356-4 0  9996,2 49760  53.2166 136.4580 0001679  80.5351 279.5831 15.08873459127929,6917.778,95.435,540.805,538.482,0.0
49760.0,STARLINK-3199,PAYLOAD,2024-03-19 03:24:54,15.08847294,0.0001391,53.2154,133.784,85.4389,274.6763,7.8988e-05,9.7e-06,0.0,0 STARLINK-3199,1 49760U 21115AN  24079.14229485  .00000970  00000-0  78988-4 0  9993,2 49760  53.2154 133.7840 0001391  85.4389 274.6763 15.08847294128010,6917.858,95.437,540.685,538.761,0.0
49760.0,STARLINK-3199,PAYLOAD,2024-03-19 09:46:26,15.08843827,0.0001582,53.2167,132.5881,120.5694,239.5454,-3.5667e-05,-8.56e-06,0.0,0 STARLINK-3199,1 49760U 21115AN  24079.40725363 -.00000856  00000-0 -35667-4 0  9990,2 49760  53.2167 132.5881 0001582 120.5694 239.5454 15.08843827126943,6917.869,95.437,540.828,538.639,0.0
49760.0,STARLINK-3199,PAYLOAD,2024-03-20 09:37:14,15.0883524,0.000215,53.2165,128.1283,145.0797,215.0336,-0.00021389,-3.69e-05,0.0,0 STARLINK-3199,1 49760U 21115AN  24080.40086029 -.00003690  00000-0 -21389-3 0  9995,2 49760  53.2165 128.1283 0002150 145.0797 215.0336 15.08835240128205,6917.895,95.438,541.247,538.273,0.0
49760.0,STARLINK-3199,PAYLOAD,2024-03-20 12:48:01,15.08841937,0.0001332,53.2166,127.5366,97.6406,262.4738,-0.00016211,-2.867e-05,0.0,0 STARLINK-3199,1 49760U 21115AN  24080.53334597 -.00002867  00000-0 -16211-3 0  9998,2 49760  53.2166 127.5366 0001332  97.6406 262.4738 15.08841937127112,6917.874,95.437,540.661,538.818,0.0
49760.0,STARLINK-3199,PAYLOAD,2024-03-21 12:38:48,15.08828798,0.0001358,53.2163,123.0759,91.3945,268.7203,0.00011433,1.532e-05,0.0,0 STARLINK-3199,1 49760U 21115AN  24081.52695526  .00001532  00000-0  11433-3 0  9997,2 49760  53.2163 123.0759 0001358  91.3945 268.7203 15.08828798128378,6917.915,95.438,540.719,538.84,0.0
49760.0,STARLINK-3199,PAYLOAD,2024-03-22 02:57:16,15.0883633,0.0001343,53.2163,120.3994,91.1754,268.9392,0.0001947,2.812e-05,0.0,0 STARLINK-3199,1 49760U 21115AN  24082.12311279  .00002812  00000-0  19470-3 0  9995,2 49760  53.2163 120.3994 0001343  91.1754 268.9392 15.08836330128461,6917.892,95.438,540.686,538.828,0.0
49760.0,STARLINK-3199,PAYLOAD,2024-03-22 09:18:49,15.08843439,0.0001401,53.2159,119.2104,90.4122,269.7031,0.00032945,4.96e-05,0.0,0 STARLINK-3199,1 49760U 21115AN  24082.38807469  .00004960  00000-0  32945-3 0  9992,2 49760  53.2159 119.2104 0001401  90.4122 269.7031 15.08843439127390,6917.87,95.437,540.704,538.766,0.0
49760.0,STARLINK-3199,PAYLOAD,2024-03-23 05:58:50,15.08838662,0.0001441,53.2158,115.3441,90.44,269.6758,6.3909e-05,7.29e-06,0.0,0 STARLINK-3199,1 49760U 21115AN  24083.24919742  .00000729  00000-0  63909-4 0  9990,2 49760  53.2158 115.3441 0001441  90.4400 269.6758 15.08838662128638,6917.884,95.438,540.746,538.753,0.0
49760.0,STARLINK-3199,PAYLOAD,2024-03-23 18:41:55,15.08846355,0.0001353,53.2158,112.9641,77.0361,283.0782,0.00020317,2.948e-05,0.0,0 STARLINK-3199,1 49760U 21115AN  24083.77911449  .00002948  00000-0  20317-3 0  9994,2 49760  53.2158 112.9641 0001353  77.0361 283.0782 15.08846355127603,6917.861,95.437,540.662,538.79,0.0
49760.0,STARLINK-3199,PAYLOAD,2024-03-24 10:35:46,15.08852159,0.0001609,53.2166,109.9963,92.4502,267.6674,0.00018161,2.604e-05,0.0,0 STARLINK-3199,1 49760U 21115AN  24084.44151024  .00002604  00000-0  18161-3 0  9997,2 49760  53.2166 109.9963 0001609  92.4502 267.6674 15.08852159128818,6917.843,95.437,540.821,538.595,0.0
49760.0,STARLINK-3199,PAYLOAD,2024-03-24 18:32:41,15.08860535,0.0001368,53.2159,108.5064,83.4162,276.6986,0.00033612,5.068e-05,0.0,0 STARLINK-3199,1 49760U 21115AN  24084.77270412  .00005068  00000-0  33612-3 0  9991,2 49760  53.2159 108.5064 0001368  83.4162 276.6986 15.08860535127756,6917.818,95.436,540.629,538.736,0.0
49760.0,STARLINK-3199,PAYLOAD,2024-03-25 05:40:24,15.08828748,0.0001706,53.2158,106.4252,75.4631,284.655,-0.00012435,-2.266e-05,0.0,0 STARLINK-3199,1 49760U 21115AN  24085.23639962 -.00002266  00000-0 -12435-3 0  9991,2 49760  53.2158 106.4252 0001706  75.4631 284.6550 15.08828748128936,6917.915,95.438,540.96,538.6,0.0
49760.0,STARLINK-3199,PAYLOAD,2024-03-25 18:23:29,15.08843051,0.0001418,53.2162,104.0477,77.0913,283.0237,0.00017346,2.474e-05,0.0,0 STARLINK-3199,1 49760U 21115AN  24085.76631736  .00002474  00000-0  17346-3 0  9995,2 49760  53.2162 104.0477 0001418  77.0913 283.0237 15.08843051129014,6917.871,95.437,540.717,538.755,0.0
49760.0,STARLINK-3199,PAYLOAD,2024-03-26 05:31:12,15.08825772,0.0002156,53.216,101.962,85.5809,274.5429,7.9202e-06,-1.62e-06,0.0,0 STARLINK-3199,1 49760U 21115AN  24086.23000891 -.00000162  00000-0  79202-5 0  9994,2 49760  53.2160 101.9620 0002156  85.5809 274.5429 15.08825772129081,6917.924,95.438,541.28,538.297,0.0
49760.0,STARLINK-3199,PAYLOAD,2024-03-26 10:17:22,15.08830141,0.0001211,53.2148,101.0719,85.9788,274.1343,2.4451e-05,1.01e-06,0.0,0 STARLINK-3199,1 49760U 21115AN  24086.42872831  .00000101  00000-0  24451-4 0  9993,2 49760  53.2148 101.0719 0001211  85.9788 274.1343 15.08830141128006,6917.911,95.438,540.613,538.938,0.0
49760.0,STARLINK-3199,PAYLOAD,2024-03-26 18:14:18,15.08830248,0.000125,53.2152,99.586,89.6246,270.4889,0.00029211,4.363e-05,0.0,0 STARLINK-3199,1 49760U 21115AN  24086.75993271  .00004363  00000-0  29211-3 0  9993,2 49760  53.2152  99.5860 0001250  89.6246 270.4889 15.08830248128059,6917.91,95.438,540.64,538.91,0.0
49760.0,STARLINK-3199,PAYLOAD,2024-03-27 10:08:09,15.08859737,0.0001172,53.2147,96.612,86.6658,273.4468,0.0013033,0.00020526,0.0,0 STARLINK-3199,1 49760U 21115AN  24087.42233181  .00020526  00000-0  13033-2 0  9998,2 49760  53.2147  96.6120 0001172  86.6658 273.4468 15.08859737129261,6917.82,95.436,540.496,538.874,0.0
49760.0,STARLINK-3199,PAYLOAD,2024-03-27 18:05:04,15.08861564,0.0001248,53.2149,95.1239,91.4484,268.6651,0.0008228,0.00012839,0.0,0 STARLINK-3199,1 49760U 21115AN  24087.75352800  .00012839  00000-0  82280-3 0  9993,2 49760  53.2149  95.1239 0001248  91.4484 268.6651 15.08861564128207,6917.814,95.436,540.543,538.816,0.0
49760.0,STARLINK-3199,PAYLOAD,2024-03-28 05:12:47,15.08817917,0.0001625,53.2151,93.0425,36.6424,323.4679,-0.0006344,-0.00010364,0.0,0 STARLINK-3199,1 49760U 21115AN  24088.21721911 -.00010364  00000-0 -63440-3 0  9998,2 49760  53.2151  93.0425 0001625  36.6424 323.4679 15.08817917129381,6917.948,95.439,540.937,538.689,0.0
49760.0,STARLINK-3199,PAYLOAD,2024-03-28 06:48:10,15.08818976,0.0001577,53.2152,92.7456,79.5676,280.5494,-0.00071198,-0.00011595,0.0,0 STARLINK-3199,1 49760U 21115AN  24088.28345870 -.00011595  00000-0 -71198-3 0  9997,2 49760  53.2152  92.7456 0001577  79.5676 280.5494 15.08818976128285,6917.945,95.439,540.901,538.719,0.0
49760.0,STARLINK-3199,PAYLOAD,2024-03-29 05:03:34,15.08857813,0.0001443,53.2155,88.5816,74.2676,285.8475,0.0011805,0.00018559,0.0,0 STARLINK-3199,1 49760U 21115AN  24089.21081227  .00018559  00000-0  11805-2 0  9997,2 49760  53.2155  88.5816 0001443  74.2676 285.8475 15.08857813129534,6917.826,95.436,540.689,538.693,0.0
49760.0,STARLINK-3199,PAYLOAD,2024-03-29 09:49:43,15.0887115,0.000142,53.2156,87.69,88.1114,272.004,0.0013938,0.00021983,0.0,0 STARLINK-3199,1 49760U 21115AN  24089.40952718  .00021983  00000-0  13938-2 0  9994,2 49760  53.2156  87.6900 0001420  88.1114 272.0040 15.08871150128451,6917.785,95.436,540.633,538.668,0.0
49760.0,STARLINK-3199,PAYLOAD,2024-03-30 04:54:19,15.08862399,0.0001601,53.2168,84.121,119.7896,240.3255,0.00012806,1.752e-05,0.0,0 STARLINK-3199,1 49760U 21115AN  24090.20439722  .00001752  00000-0  12806-3 0  9995,2 49760  53.2168  84.1210 0001601 119.7896 240.3255 15.08862399129686,6917.812,95.436,540.784,538.569,0.0
49760.0,STARLINK-3199,PAYLOAD,2024-03-30 09:40:29,15.08857051,0.0001359,53.2165,83.2306,99.7499,260.3647,-0.00031739,-5.338e-05,0.0,0 STARLINK-3199,1 49760U 21115AN  24090.40311663 -.00005338  00000-0 -31739-3 0  9992,2 49760  53.2165  83.2306 0001359  99.7499 260.3647 15.08857051128602,6917.828,95.436,540.633,538.753,0.0
49760.0,STARLINK-3199,PAYLOAD,2024-03-30 16:02:01,15.08850588,0.0001442,53.2171,82.0406,101.7413,258.3741,0.00018548,2.666e-05,0.0,0 STARLINK-3199,1 49760U 21115AN  24090.66807808  .00002666  00000-0  18548-3 0  9993,2 49760  53.2171  82.0406 0001442 101.7413 258.3741 15.08850588129757,6917.848,95.437,540.711,538.715,0.0
49760.0,STARLINK-3199,PAYLOAD,2024-03-30 22:23:34,15.08853197,0.0002524,53.2167,80.8517,85.9024,274.2257,0.00034438,5.199e-05,0.0,0 STARLINK-3199,1 49760U 21115AN  24090.93304182  .00005199  00000-0  34438-3 0  9990,2 49760  53.2167  80.8517 0002524  85.9024 274.2257 15.08853197128683,6917.84,95.437,541.451,537.959,0.0
49760.0,STARLINK-3199,PAYLOAD,2024-03-31 04:45:07,15.0883998,0.0001742,53.2191,79.6657,110.2664,249.8516,2.1382e-05,5.2e-07,0.0,0 STARLINK-3199,1 49760U 21115AN  24091.19800277  .00000052  00000-0  21382-4 0  9993,2 49760  53.2191  79.6657 0001742 110.2664 249.8516 15.08839980129832,6917.88,95.438,540.951,538.54,0.0
49760.0,STARLINK-3199,PAYLOAD,2024-03-31 06:20:30,15.08845533,0.0001683,53.2181,79.3683,107.8363,252.2813,-4.4379e-05,-9.94e-06,0.0,0 STARLINK-3199,1 49760U 21115AN  24091.26424157 -.00000994  00000-0 -44379-4 0  9998,2 49760  53.2181  79.3683 0001683 107.8363 252.2813 15.08845533128736,6917.863,95.437,540.893,538.564,0.0
49760.0,STARLINK-3199,PAYLOAD,2024-03-31 15:52:49,15.08847842,0.0001618,53.2181,77.5827,104.0408,256.0764,8.9979e-05,1.145e-05,0.0,0 STARLINK-3199,1 49760U 21115AN  24091.66167885  .00001145  00000-0  89979-4 0  9996,2 49760  53.2181  77.5827 0001618 104.0408 256.0764 15.08847842128791,6917.856,95.437,540.841,538.602,0.0
